NORAD_CAT_ID,OBJECT_NAME,OBJECT_TYPE,EPOCH,MEAN_MOTION,ECCENTRICITY,INCLINATION,RA_OF_ASC_NODE,ARG_OF_PERICENTER,MEAN_ANOMALY,BSTAR,MEAN_MOTION_DOT,MEAN_MOTION_DDOT,TLE_LINE0,TLE_LINE1,TLE_LINE2,SEMIMAJOR_AXIS,PERIOD,APOGEE,PERIGEE,DECAYED
52844.0,STARLINK-4208,PAYLOAD,2023-09-04 05:51:36,15.08805612,0.0001727,53.2159,192.6935,85.4987,274.6202,-0.00039212,-6.517e-05,0.0,0 STARLINK-4208,1 52844U 22062Q   23247.24417483 -.00006517  00000-0 -39212-3 0  9997,2 52844  53.2159 192.6935 0001727  85.4987 274.6202 15.08805612 67285,6917.986,95.44,541.045,538.656,0.0
52844.0,STARLINK-4208,PAYLOAD,2023-09-04 13:48:32,15.08821331,0.00013,53.2172,191.2059,117.9351,242.1773,-4.7442e-05,-1.042e-05,0.0,0 STARLINK-4208,1 52844U 22062Q   23247.57537302 -.00001042  00000-0 -47442-4 0  9999,2 52844  53.2172 191.2059 0001300 117.9351 242.1773 15.08821331 67824,6917.937,95.439,540.702,538.903,0.0
52844.0,STARLINK-4208,PAYLOAD,2023-09-05 02:31:37,15.08833195,9.68e-05,53.2153,188.8273,118.4481,241.6608,0.00029213,4.364e-05,0.0,0 STARLINK-4208,1 52844U 22062Q   23248.10529394  .00004364  00000-0  29213-3 0  9994,2 52844  53.2153 188.8273 0000968 118.4481 241.6608 15.08833195 67903,6917.901,95.438,540.436,539.097,0.0
52844.0,STARLINK-4208,PAYLOAD,2023-09-05 05:42:23,15.08844496,0.0001296,53.2153,188.235,95.1945,264.9195,0.00047503,7.281e-05,0.0,0 STARLINK-4208,1 52844U 22062Q   23248.23777105  .00007281  00000-0  47503-3 0  9996,2 52844  53.2153 188.2350 0001296  95.1945 264.9195 15.08844496 67921,6917.867,95.437,540.628,538.835,0.0
52844.0,STARLINK-4208,PAYLOAD,2023-09-06 02:22:23,15.088591,0.0001336,53.2158,184.3679,109.0866,251.0271,0.00068575,0.00010648,0.0,0 STARLINK-4208,1 52844U 22062Q   23249.09888501  .00010648  00000-0  68575-3 0  9997,2 52844  53.2158 184.3679 0001336 109.0866 251.0271 15.08859100 67569,6917.822,95.436,540.611,538.763,0.0
52844.0,STARLINK-4208,PAYLOAD,2023-09-06 19:51:37,15.08854113,0.0001576,53.2164,181.0962,114.8221,245.2935,5.8359e-05,6.41e-06,0.0,0 STARLINK-4208,1 52844U 22062Q   23249.82751843  .00000641  00000-0  58359-4 0  9998,2 52844  53.2164 181.0962 0001576 114.8221 245.2935 15.08854113 67673,6917.837,95.437,540.793,538.612,0.0
52844.0,STARLINK-4208,PAYLOAD,2023-09-07 02:13:10,15.08839908,0.0001297,53.2169,179.9104,108.8117,251.3016,0.00031536,4.735e-05,0.0,0 STARLINK-4208,1 52844U 22062Q   23250.09248639  .00004735  00000-0  31536-3 0  9998,2 52844  53.2169 179.9104 0001297 108.8117 251.3016 15.08839908 68202,6917.881,95.438,540.643,538.848,0.0
52844.0,STARLINK-4208,PAYLOAD,2023-09-07 05:23:56,15.08851313,0.0001519,53.2164,179.3143,106.2957,253.8202,3.7231e-05,3.05e-06,0.0,0 STARLINK-4208,1 52844U 22062Q   23250.22495914  .00000305  00000-0  37231-4 0  9991,2 52844  53.2164 179.3143 0001519 106.2957 253.8202 15.08851313 68225,6917.846,95.437,540.762,538.66,0.0
52844.0,STARLINK-4208,PAYLOAD,2023-09-08 02:03:57,15.08842928,0.0001366,53.2177,175.4487,99.3672,260.7475,4.8644e-05,4.86e-06,0.0,0 STARLINK-4208,1 52844U 22062Q   23251.08608009  .00000486  00000-0  48644-4 0  9997,2 52844  53.2177 175.4487 0001366  99.3672 260.7475 15.08842928 68358,6917.871,95.437,540.681,538.791,0.0
52844.0,STARLINK-4208,PAYLOAD,2023-09-08 17:57:48,15.08838356,0.0001385,53.2178,172.4762,99.5343,260.5806,6.4878e-05,7.45e-06,0.0,0 STARLINK-4208,1 52844U 22062Q   23251.74848254  .00000745  00000-0  64878-4 0  9993,2 52844  53.2178 172.4762 0001385  99.5343 260.5806 15.08838356 67962,6917.885,95.438,540.709,538.792,0.0
52844.0,STARLINK-4208,PAYLOAD,2023-09-09 00:19:24,15.08794643,0.0001769,53.2165,171.2836,57.6041,302.5122,-0.0003171,-5.325e-05,0.0,0 STARLINK-4208,1 52844U 22062Q   23252.01348137 -.00005325  00000-0 -31710-3 0  9998,2 52844  53.2165 171.2836 0001769  57.6041 302.5122 15.08794643 68490,6918.019,95.44,541.108,538.66,0.0
52844.0,STARLINK-4208,PAYLOAD,2023-09-09 05:05:30,15.08844637,0.0001292,53.2181,170.3924,97.5852,262.5287,0.00010904,1.448e-05,0.0,0 STARLINK-4208,1 52844U 22062Q   23252.21215767  .00001448  00000-0  10904-3 0  9994,2 52844  53.2181 170.3924 0001292  97.5852 262.5287 15.08844637 68520,6917.866,95.437,540.625,538.837,0.0
52844.0,STARLINK-4208,PAYLOAD,2023-09-09 11:27:03,15.08834364,0.0001561,53.2181,169.2028,97.4699,262.6471,5.6877e-05,6.17e-06,0.0,0 STARLINK-4208,1 52844U 22062Q   23252.47712655  .00000617  00000-0  56877-4 0  9997,2 52844  53.2181 169.2028 0001561  97.4699 262.6471 15.08834364 68071,6917.898,95.438,540.842,538.683,0.0
52844.0,STARLINK-4208,PAYLOAD,2023-09-09 17:48:36,15.08833827,0.0001422,53.2183,168.0137,100.5376,259.5776,7.4323e-05,8.95e-06,0.0,0 STARLINK-4208,1 52844U 22062Q   23252.74208740  .00000895  00000-0  74323-4 0  9996,2 52844  53.2183 168.0137 0001422 100.5376 259.5776 15.08833827 68600,6917.899,95.438,540.748,538.781,0.0
52844.0,STARLINK-4208,PAYLOAD,2023-09-10 01:45:31,15.08845574,0.0001268,53.2174,166.5282,96.9532,263.1604,0.00012027,1.627e-05,0.0,0 STARLINK-4208,1 52844U 22062Q   23253.07327964  .00001627  00000-0  12027-3 0  9999,2 52844  53.2174 166.5282 0001268  96.9532 263.1604 15.08845574 68652,6917.863,95.437,540.606,538.851,0.0
52844.0,STARLINK-4208,PAYLOAD,2023-09-10 03:20:54,15.08850252,0.000136,53.2175,166.2302,92.5833,267.5315,0.00015885,2.242e-05,0.0,0 STARLINK-4208,1 52844U 22062Q   23253.13951614  .00002242  00000-0  15885-3 0  9990,2 52844  53.2175 166.2302 0001360  92.5833 267.5315 15.08850252 68175,6917.849,95.437,540.655,538.773,0.0
52844.0,STARLINK-4208,PAYLOAD,2023-09-11 01:36:18,15.0884156,0.0001223,53.2176,162.0655,93.9453,266.1679,5.8019e-05,6.36e-06,0.0,0 STARLINK-4208,1 52844U 22062Q   23254.06688642  .00000636  00000-0  58019-4 0  9993,2 52844  53.2176 162.0655 0001223  93.9453 266.1679 15.08841560 68802,6917.876,95.437,540.587,538.895,0.0
52844.0,STARLINK-4208,PAYLOAD,2023-09-11 11:08:37,15.08839474,0.0001204,53.2167,160.281,91.5529,268.5601,5.745e-05,6.27e-06,0.0,0 STARLINK-4208,1 52844U 22062Q   23254.46432528  .00000627  00000-0  57450-4 0  9995,2 52844  53.2167 160.2810 0001204  91.5529 268.5601 15.08839474 68376,6917.882,95.438,540.58,538.914,0.0
52844.0,STARLINK-4208,PAYLOAD,2023-09-12 01:27:05,15.08853743,0.0001334,53.2168,157.6063,85.8862,274.2282,0.0002111,3.075e-05,0.0,0 STARLINK-4208,1 52844U 22062Q   23255.06047881  .00003075  00000-0  21110-3 0  9999,2 52844  53.2168 157.6063 0001334  85.8862 274.2282 15.08853743 68955,6917.838,95.437,540.626,538.781,0.0
52844.0,STARLINK-4208,PAYLOAD,2023-09-12 03:02:28,15.08858514,0.0001313,53.2166,157.3086,85.2892,274.825,0.00028396,4.236e-05,0.0,0 STARLINK-4208,1 52844U 22062Q   23255.12671622  .00004236  00000-0  28396-3 0  9995,2 52844  53.2166 157.3086 0001313  85.2892 274.8250 15.08858514 68478,6917.824,95.436,540.597,538.78,0.0
52844.0,STARLINK-4208,PAYLOAD,2023-09-13 02:53:15,15.08859522,0.0001445,53.217,152.8484,96.4519,263.6638,0.0004513,6.906e-05,0.0,0 STARLINK-4208,1 52844U 22062Q   23256.12031753  .00006906  00000-0  45130-3 0  9992,2 52844  53.2170 152.8484 0001445  96.4519 263.6638 15.08859522 69119,6917.821,95.436,540.685,538.686,0.0
52844.0,STARLINK-4208,PAYLOAD,2023-09-13 17:11:43,15.0884882,0.0001522,53.2176,150.1715,93.2939,266.8227,0.00016898,2.403e-05,0.0,0 STARLINK-4208,1 52844U 22062Q   23256.71647734  .00002403  00000-0  16898-3 0  9996,2 52844  53.2176 150.1715 0001522  93.2939 266.8227 15.08848820 69208,6917.853,95.437,540.771,538.666,0.0
52844.0,STARLINK-4208,PAYLOAD,2023-09-13 21:57:52,15.08851203,0.0001457,53.2174,149.2806,98.057,262.0587,0.00023969,3.53e-05,0.0,0 STARLINK-4208,1 52844U 22062Q   23256.91519627  .00003530  00000-0  23969-3 0  9996,2 52844  53.2174 149.2806 0001457  98.0570 262.0587 15.08851203 68741,6917.846,95.437,540.719,538.703,0.0
52844.0,STARLINK-4208,PAYLOAD,2023-09-14 02:44:02,15.08857007,0.0001309,53.2165,148.3873,88.2648,271.8494,0.00039702,6.039e-05,0.0,0 STARLINK-4208,1 52844U 22062Q   23257.11391263  .00006039  00000-0  39702-3 0  9992,2 52844  53.2165 148.3873 0001309  88.2648 271.8494 15.08857007 68774,6917.828,95.436,540.599,538.788,0.0
52844.0,STARLINK-4208,PAYLOAD,2023-09-14 17:02:31,15.08833001,0.000147,53.2171,145.7117,94.3324,265.7836,-8.9652e-05,-1.714e-05,0.0,0 STARLINK-4208,1 52844U 22062Q   23257.71008160 -.00001714  00000-0 -89652-4 0  9996,2 52844  53.2171 145.7117 0001470  94.3324 265.7836 15.08833001 69356,6917.902,95.438,540.784,538.75,0.0
52844.0,STARLINK-4208,PAYLOAD,2023-09-14 20:13:17,15.08830848,0.0001398,53.2172,145.117,97.9391,262.176,-6.4536e-05,-1.315e-05,0.0,0 STARLINK-4208,1 52844U 22062Q   23257.84256291 -.00001315  00000-0 -64536-4 0  9991,2 52844  53.2172 145.1170 0001398  97.9391 262.1760 15.08830848 68882,6917.908,95.438,540.74,538.806,0.0
52844.0,STARLINK-4208,PAYLOAD,2023-09-15 02:34:50,15.08834754,0.0001531,53.217,143.9272,86.7551,273.3616,4.1715e-05,3.76e-06,0.0,0 STARLINK-4208,1 52844U 22062Q   23258.10752482  .00000376  00000-0  41715-4 0  9992,2 52844  53.2170 143.9272 0001531  86.7551 273.3616 15.08834754 68921,6917.896,95.438,540.821,538.702,0.0
52844.0,STARLINK-4208,PAYLOAD,2023-09-15 23:14:50,15.0885159,0.000156,53.2167,140.0619,85.3325,274.7846,0.00065423,0.00010143,0.0,0 STARLINK-4208,1 52844U 22062Q   23258.96864392  .00010143  00000-0  65423-3 0  9994,2 52844  53.2167 140.0619 0001560  85.3325 274.7846 15.08851590 69542,6917.845,95.437,540.789,538.631,0.0
52844.0,STARLINK-4208,PAYLOAD,2023-09-16 23:05:38,15.08834091,0.0001704,53.2171,135.6046,96.302,263.8167,4.017e-05,3.51e-06,0.0,0 STARLINK-4208,1 52844U 22062Q   23259.96224958  .00000351  00000-0  40170-4 0  9996,2 52844  53.2171 135.6046 0001704  96.3020 263.8167 15.08834091 69693,6917.898,95.438,540.942,538.585,0.0
52844.0,STARLINK-4208,PAYLOAD,2023-09-17 02:16:24,15.08839642,0.0001655,53.2167,135.0069,85.805,274.3131,0.00016418,2.326e-05,0.0,0 STARLINK-4208,1 52844U 22062Q   23260.09472564  .00002326  00000-0  16418-3 0  9991,2 52844  53.2167 135.0069 0001655  85.8050 274.3131 15.08839642 69716,6917.881,95.438,540.891,538.602,0.0
